163P/NEAT,e,12.7170,102.0664,349.5573,3.764479,0.1349419,0.45269624,181.1446,04/09.0/2023,2000,g 14.5,4.0
# From MPEC 2021-F20
164P/Christensen,e,16.2710,88.2654,325.8805,3.654123,0.1411007,0.54101675,250.0232,04/09.0/2023,2000,g 11.0,4.0
# From MPC 75721
165P/LINEAR,e,15.8953,0.8553,125.7791,17.83536,0.0130852,0.61679685,109.3740,04/09.0/2023,2000,g 11.5,2.0
# From MPC 75722
166P/NEAT,e,15.3858,64.3426,321.6882,13.81699,0.0191904,0.38460659,146.0972,04/09.0/2023,2000,g  5.5,4.0
# From MPC 75722
167P/CINEOS,e,19.1009,295.7458,344.7941,16.25315,0.0150417,0.26958382,120.5205,04/09.0/2023,2000,g  9.5,2.0
# From MPC102101
168P/Hergenrother,e,21.6213,355.4489,15.0373,3.582379,0.1453606,0.62119787,195.0326,04/09.0/2023,2000,g 15.5,4.0
# From MPEC 2023-G31
169P/NEAT,e,11.2982,176.1010,218.0569,2.602716,0.2347275,0.76834454,64.1532,04/09.0/2023,2000,g 16.0,2.0
# From MPEC 2023-A50
170P/Christensen,e,10.1176,142.9074,225.3814,4.210019,0.1140980,0.30550303,358.7980,04/09.0/2023,2000,g 12.0,4.0
# From MPC102102
171P/Spahr,e,21.9478,101.6883,347.0475,3.553617,0.1471290,0.50223041,227.5367,04/09.0/2023,2000,g 13.5,4.0
# From MPEC 2023-FK0
172P/Yeung,e,11.2253,30.8752,209.2165,4.217672,0.1137876,0.20451893,253.0088,04/09.0/2023,2000,g 13.0,4.0
# From MPEC 2022-X67
173P/Mueller,e,16.4892,100.3781,29.1520,5.710139,0.0722327,0.26157753,34.5698,04/09.0/2023,2000,g  7.5,4.0
# From MPC 92985
174P/Echeclus,e,4.3439,173.1891,163.4267,10.74576,0.0279800,0.45682628,81.2686,04/09.0/2023,2000,g  9.4,2.0
# From MPC114608
175P/Hergenrother,e,4.9164,111.2358,74.6251,3.646226,0.1415594,0.38863321,185.0471,04/09.0/2023,2000,g 14.0,4.0
# From MPC 89015
176P/LINEAR,e,0.2313,345.8229,34.3634,3.196533,0.1724588,0.19274397,24.0304,04/09.0/2023,2000,g 15.1,2.0
# From MPEC 2020-L06
177P/Barnard,e,31.0950,271.8768,60.6490,24.49592,0.0081295,0.95510444,49.2549,04/09.0/2023,2000,g 15.0,4.0
# From MPEC 2021-F20
178P/Hug-Bell,e,11.0876,102.8282,297.8605,3.632712,0.1423500,0.48249471,141.7533,04/09.0/2023,2000,g 14.6,4.0
# From MPEC 2023-F81
179P/Jedicke,e,19.8973,115.5147,297.0024,5.932785,0.0682050,0.30585276,21.3535,04/09.0/2023,2000,g  2.5,8.0
# From MPEC 2023-G31
180P/NEAT,e,16.8601,84.5674,94.6694,3.867423,0.1295900,0.35336250,347.7920,04/09.0/2023,2000,g 11.0,4.0
# From MPC 89012
181P/Shoemaker-Levy,e,17.4862,35.3952,336.2762,3.875743,0.1291730,0.70055954,58.8047,04/09.0/2023,2000,g 11.5,4.0
# From MPEC 2014-J10
182P/LONEOS,e,16.2291,72.4574,54.2194,2.950201,0.1945031,0.66327546,64.5260,04/09.0/2023,2000,g 18.0,4.0
# From MPEC 2023-A50
183P/Korlevic-Juric,e,18.9609,3.9878,167.2376,4.657608,0.0980527,0.10866950,197.8136,04/09.0/2023,2000,g 12.5,2.0
# From MPEC 2020-W26
184P/Lovas,e,4.5739,173.2408,186.5583,3.797660,0.1331772,0.55088454,119.1471,04/09.0/2023,2000,g 13.5,4.0
# From MPC109593
185P/Petriew,e,14.0146,214.1146,181.8918,3.097900,0.1807603,0.69970439,342.8446,04/09.0/2023,2000,g 15.0,4.0
# From MPEC 2022-X67
186P/Garradd,e,28.6546,326.3183,269.5316,4.854576,0.0921461,0.12408807,143.5542,04/09.0/2023,2000,g  7.5,4.0
# From MPEC 2020-SI8
187P/LINEAR,e,13.6379,109.8819,131.2992,4.564376,0.1010722,0.15256677,181.3890,04/09.0/2023,2000,g  9.0,4.0
# From MPEC 2022-K19
188P/LINEAR-Mueller,e,10.5253,358.9607,26.6526,4.370232,0.1078816,0.41684021,241.3587,04/09.0/2023,2000,g 11.5,4.0
# From MPEC 2022-QD9
189P/NEAT,e,20.0706,281.6965,16.3325,2.945626,0.1949565,0.58880561,43.5058,04/09.0/2023,2000,g 19.0,4.0
# From MPEC 2020-K19
190P/Mueller,e,2.1741,335.5282,50.4228,4.229907,0.1132943,0.52223195,289.1889,04/09.0/2023,2000,g 13.0,4.0
# From MPEC 2022-X67
191P/McNaught,e,8.8396,98.2161,284.1503,3.637976,0.1420412,0.38596419,106.4637,04/09.0/2023,2000,g 13.0,4.0
# From MPC 75724
192P/Shoemaker-Levy,e,24.5876,51.6110,313.0626,6.465994,0.0599447,0.77342931,335.3419,04/09.0/2023,2000,g 15.0,4.0
# From MPEC 2022-Y15
193P/LINEAR-NEAT,e,10.6876,335.1787,8.1093,3.576944,0.1456921,0.39359005,86.2279,04/09.0/2023,2000,g 14.0,4.0
# From MPC 98566
194P/LINEAR,e,11.8157,349.5720,128.4821,4.127066,0.1175552,0.56406011,324.6130,04/09.0/2023,2000,g 16.0,4.0
# From MPEC 2023-D72
195P/Hill,e,36.3519,243.1113,249.3355,6.507114,0.0593774,0.31480427,310.1475,04/09.0/2023,2000,g  8.5,4.0
# From MPEC 2022-YN2
196P/Tichy,e,19.3017,24.1124,12.0405,3.803486,0.1328713,0.42806407,21.4849,04/09.0/2023,2000,g 13.5,4.0
# From MPC 94676
197P/LINEAR,e,25.5282,66.3602,188.7578,2.868041,0.2029206,0.62935986,24.8109,04/09.0/2023,2000,g 16.5,2.0
# From NK 1596
198P/ODAS,e,1.3385,358.2107,69.2271,3.595987,0.1445363,0.44440847,227.7784,04/09.0/2023,2000,g  9.0,4.0
# From MPEC 2023-G31
199P/Shoemaker,e,24.9365,92.3481,191.7757,5.882862,0.0690750,0.50529361,351.6707,04/09.0/2023,2000,g 10.0,4.0
# From MPEC 2022-C56
200P/Larsen,e,12.0982,234.7359,134.3414,4.946999,0.0895759,0.33253205,120.8205,04/09.0/2023,2000,g  9.0,4.0
# From MPC 93588
201P/LONEOS,e,5.7394,19.7445,41.5451,3.354730,0.1604049,0.63739636,109.4143,04/09.0/2023,2000,g 14.0,4.0
# From MPEC 2022-X67
202P/Scotti,e,2.1410,177.3328,274.6107,4.119599,0.1178750,0.25595988,312.3325,04/09.0/2023,2000,g 13.5,4.0
# From MPEC 2021-S45
203P/Korlevic,e,2.9731,290.2801,154.7884,4.669284,0.0976852,0.31582169,110.3783,04/09.0/2023,2000,g 14.5,2.0
# From MPEC 2023-G31
204P/LINEAR-NEAT,e,6.5960,108.4983,356.6587,3.582074,0.1453792,0.48789556,20.8079,04/09.0/2023,2000,g 14.0,4.0
# From MPEC 2023-A50
205P/Giacobini,e,15.3062,179.6034,154.1762,3.542047,0.1478504,0.56792713,66.5883,04/09.0/2023,2000,g 13.0,4.0
# From MPC 75725
206P/Barnard-Boattini,e,33.6407,202.3307,189.5411,3.490228,0.1511553,0.55152868,115.6763,04/09.0/2023,2000,g 19.0,4.0
# From MPC 75725
207P/NEAT,e,10.2014,198.1608,273.0226,3.880436,0.1289387,0.75840771,321.6017,04/09.0/2023,2000,g 16.0,4.0
# From MPEC 2022-K19
208P/McMillan,e,4.4125,36.3398,310.6099,4.041263,0.1213189,0.37411683,299.0158,04/09.0/2023,2000,g 12.5,4.0
# From MPEC 2023-CD7
209P/LINEAR,e,21.2725,62.7651,152.4475,2.959663,0.1935712,0.67359114,270.4473,04/09.0/2023,2000,g 17.0,2.0
# From MPC105242
210P/Christensen,e,10.2765,93.8020,345.9047,3.162885,0.1752181,0.83372445,192.0067,04/09.0/2023,2000,g 13.5,4.0
# From MPEC 2023-FK0
211P/Hill,e,18.9187,117.1290,4.2944,3.548041,0.1474759,0.34398595,27.4822,04/09.0/2023,2000,g 12.5,4.0
# From MPEC 2021-F20
212P/NEAT,e,22.1454,98.0405,14.0351,3.900509,0.1279447,0.58700065,311.1092,04/09.0/2023,2000,g 17.0,2.0
# From MPEC 2022-GA9
213P/Van Ness,e,10.3808,311.2771,5.7653,3.345759,0.1610505,0.40808185,325.0960,04/09.0/2023,2000,g 10.5,4.0
# From MPC 92986
214P/LINEAR,e,15.1828,348.2464,190.1705,3.619557,0.1431268,0.48588734,27.8825,04/09.0/2023,2000,g 13.0,4.0
# From MPEC 2023-B57
215P/NEAT,e,10.5771,56.6780,262.4140,4.331529,0.1093307,0.16602524,135.2148,04/09.0/2023,2000,g 11.0,4.0
# From MPC100284
216P/LINEAR,e,9.0635,359.8015,151.6981,3.857880,0.1300712,0.44855436,324.5166,04/09.0/2023,2000,g 13.0,4.0
# From MPEC 2021-N06
217P/LINEAR,e,12.8621,125.4187,246.9515,3.948216,0.1256327,0.68930103,262.4132,04/09.0/2023,2000,g 12.0,4.0
# From MPEC 2022-K19
218P/LINEAR,e,2.7306,176.0135,59.5374,3.087429,0.1816806,0.62350339,166.6005,04/09.0/2023,2000,g 16.0,4.0
# From MPC100284
219P/LINEAR,e,11.5396,230.9525,107.5918,3.646135,0.1415647,0.35407348,316.0122,04/09.0/2023,2000,g 11.0,4.0
# From MPEC 2021-BE3
220P/McNaught,e,8.1272,150.1060,180.6083,3.117915,0.1790226,0.50125563,152.0796,04/09.0/2023,2000,g 15.0,4.0
# From MPEC 2022-UY9
221P/LINEAR,e,11.4643,229.5889,40.1078,3.456974,0.1533416,0.49432707,73.0771,04/09.0/2023,2000,g 14.5,4.0
# From MPC 92277
222P/LINEAR,e,5.0977,6.7747,346.2820,2.898508,0.1997296,0.71476912,280.1363,04/09.0/2023,2000,g 20.0,4.0
# From MPEC 2023-A50
223P/Skiff,e,27.0214,346.7638,37.8716,4.158578,0.1162216,0.41654762,177.9297,04/09.0/2023,2000,g 12.0,4.0
# From MPEC 2023-BF4
224P/LINEAR-NEAT,e,13.3058,40.0382,16.6864,3.443680,0.1542303,0.40583457,29.4583,04/09.0/2023,2000,g 15.5,4.0
# From MPC 75727
225P/LINEAR,e,21.3668,14.2042,3.9185,3.647936,0.1414599,0.63848264,342.8741,04/09.0/2023,2000,g 18.0,4.0
# From MPC106349
226P/Pigott-LINEAR-Kowalski,e,44.0447,54.0133,341.0794,3.765900,0.1348655,0.52898713,324.6296,04/09.0/2023,2000,g 12.5,4.0
# From MPC102956
227P/Catalina-LINEAR,e,7.5087,36.8118,105.4616,3.442212,0.1543290,0.52812039,308.4567,04/09.0/2023,2000,g 16.5,2.0
# From MPEC 2022-HC2
228P/LINEAR,e,7.9132,30.9860,114.8286,4.166354,0.1158964,0.17638970,130.6196,04/09.0/2023,2000,g 14.1,4.0
# From MPC106349
229P/Gibbs,e,26.0919,157.8994,224.0852,3.925916,0.1267046,0.37796509,271.7536,04/09.0/2023,2000,g 13.0,4.0
# From MPEC 2023-FK0
230P/LINEAR,e,15.4682,106.9743,313.4679,3.452962,0.1536089,0.54561076,59.2321,04/09.0/2023,2000,g 13.0,4.0
# From MPEC 2022-K19
231P/LINEAR-NEAT,e,12.2902,132.9538,44.2006,4.048689,0.1209853,0.24236231,168.8403,04/09.0/2023,2000,g 14.5,2.0
# From MPC112394
232P/Hill,e,14.6433,56.0258,53.2260,4.474626,0.1041283,0.33493092,152.4495,04/09.0/2023,2000,g 11.5,4.0
# From MPEC 2021-N06
233P/La Sagra,e,11.2893,74.9175,26.9594,3.028259,0.1870314,0.41230979,171.9245,04/09.0/2023,2000,g 15.0,4.0
# From MPEC 2022-K19
234P/LINEAR,e,11.5356,179.5715,357.3395,3.796175,0.1332554,0.25653053,284.9233,04/09.0/2023,2000,g 12.0,4.0
# From MPC110497
235P/LINEAR,e,10.2370,202.1527,336.6680,3.796254,0.1332512,0.37868499,231.3610,04/09.0/2023,2000,g 12.0,4.0
# From MPC107688
236P/LINEAR,e,16.3515,245.5716,119.3508,3.727733,0.1369421,0.50940512,268.7109,04/09.0/2023,2000,g 14.0,4.0
# From MPEC 2023-G31
237P/LINEAR,e,14.0168,245.3586,25.2615,3.510785,0.1498296,0.43401651,354.6542,04/09.0/2023,2000,g 14.5,2.0
# From MPEC 2022-YN2
238P/Read,e,1.2640,51.6258,324.1924,3.165222,0.1750241,0.25141088,53.8452,04/09.0/2023,2000,g 14.5,4.0
# From MPEC 2021-F20
239P/LINEAR,e,11.3046,255.9332,220.3595,4.467157,0.1043896,0.63050107,161.8759,04/09.0/2023,2000,g 17.5,2.0
# From MPEC 2023-CD7
240P/NEAT,e,23.5318,74.9099,351.9608,3.863776,0.1297736,0.44995656,232.0406,04/09.0/2023,2000,g 11.0,4.0
# From MPEC 2022-J42
